OBJECT_NAME,OBJECT_ID,EPOCH,MEAN_MOTION,ECCENTRICITY,INCLINATION,RA_OF_ASC_NODE,ARG_OF_PERICENTER,MEAN_ANOMALY,EPHEMERIS_TYPE,CLASSIFICATION_TYPE,NORAD_CAT_ID,ELEMENT_SET_NO,REV_AT_EPOCH,BSTAR,MEAN_MOTION_DOT,MEAN_MOTION_DDOT
STARLINK-3267,2021-125AT,2026-06-15T03:09:43.042752,15.08834046,.0001378,53.1602,161.6033,76.4914,283.6231,0,U,50197,999,25149,.35154E-4,.271E-5,0
STARLINK-3264,2021-125AU,2026-06-15T04:23:54.567744,15.08836738,.0001416,53.1598,161.3715,97.2458,262.8695,0,U,50198,999,25145,.37836E-4,.314E-5,0
STARLINK-3270,2021-125AV,2026-06-15T03:57:26.007840,15.08844004,.0001303,53.1585,161.4539,74.0639,286.0496,0,U,50199,999,25144,.14773E-3,.2064E-4,0
STARLINK-3235,2021-125AW,2026-06-15T04:29:13.737120,15.08829898,.0001428,53.1607,161.3165,81.1904,278.9249,0,U,50200,999,25146,.74778E-4,.902E-5,0
STARLINK-3256,2021-125AY,2026-06-15T03:52:07.399200,15.08830571,.0001344,53.1603,161.4702,89.7521,270.3624,0,U,50202,999,25144,-.14891E-3,-.2657E-4,0
STARLINK-3257,2021-125AZ,2026-06-15T04:41:12.045120,15.08832622,.0001458,53.1613,161.4034,91.4123,268.7036,0,U,50203,999,25151,-.40754E-5,-.353E-5,0
STARLINK-3254,2021-125BA,2026-06-15T04:04:06.049344,15.08830224,.0001362,53.1602,161.4431,91.8780,268.2367,0,U,50204,999,25150,.19172E-4,.17E-6,0
STARLINK-3260,2021-125BB,2026-06-15T04:13:22.412640,15.08839337,.0001945,53.1627,131.4021,93.6961,266.4253,0,U,50205,999,25187,-.40795E-4,-.938E-5,0
STARLINK-3323,2022-001B,2026-06-15T01:29:03.794208,15.08812527,.000119,53.1610,81.9172,92.8829,267.2299,0,U,50804,999,24524,-.1272E-3,-.231E-4,0
STARLINK-3333,2022-001C,2026-06-15T01:23:44.623968,15.08828466,.0001392,53.1616,81.9349,92.3980,267.7171,0,U,50805,999,24524,-.17342E-4,-.564E-5,0
STARLINK-3335,2022-001D,2026-06-15T01:18:26.513856,15.08828358,.0001352,53.1604,81.9548,95.6079,264.5066,0,U,50806,999,24524,.2443E-4,.101E-5,0
STARLINK-3355,2022-001F,2026-06-14T23:32:26.816352,15.08825437,.0001594,53.1617,82.2815,97.6408,262.4765,0,U,50808,999,24523,-.904E-4,-.1726E-4,0
STARLINK-3232,2022-001G,2026-06-15T01:13:08.393376,15.08831147,.0001343,53.1612,81.9665,94.5309,265.5836,0,U,50809,999,24524,-.13422E-4,-.502E-5,0
STARLINK-3338,2022-001K,2026-06-15T01:50:15.324000,15.08831255,.0001387,53.1602,81.9563,89.4844,270.6306,0,U,50812,999,24524,.5611E-4,.605E-5,0
STARLINK-3349,2022-001L,2026-06-14T21:30:13.167072,15.45628457,.00015667,53.2032,25.0645,156.4860,203.6220,0,U,50813,999,24604,.10186484E-2,.49744E-3,0
STARLINK-3324,2022-001M,2026-06-15T01:54:14.659776,15.08813537,.0001535,53.1628,91.8390,96.4170,263.6996,0,U,50814,999,24511,-.16347E-3,-.2887E-4,0
STARLINK-3234,2022-001N,2026-06-15T02:10:06.902688,15.08824112,.0001488,53.1617,91.7935,101.4129,258.7029,0,U,50815,999,24511,-.282E-4,-.737E-5,0
STARLINK-3342,2022-001P,2026-06-15T01:58:35.721696,15.17563364,.00035,53.2128,85.8301,100.1822,259.9569,0,U,50816,999,24519,.1225E-2,.2467E-3,0
STARLINK-3341,2022-001Q,2026-06-15T02:04:48.441792,15.08832138,.0001626,53.1600,91.8055,88.5076,271.6102,0,U,50817,999,24511,.28682E-4,.168E-5,0
STARLINK-3336,2022-001R,2026-06-15T01:38:19.379040,15.08842324,.0001777,53.1612,91.8885,96.6571,263.4623,0,U,50818,999,24510,.15896E-3,.2243E-4,0
STARLINK-3327,2022-001S,2026-06-15T01:48:54.671328,15.08831156,.0001116,53.1605,91.8559,118.2382,241.8722,0,U,50819,999,24511,.27616E-3,.4109E-4,0
STARLINK-3339,2022-001T,2026-06-15T04:33:12.349728,15.08832313,.0001568,53.1602,91.3428,93.3937,266.7233,0,U,50820,999,24512,.42596E-4,.39E-5,0
STARLINK-3346,2022-001U,2026-06-15T02:20:41.418240,15.08823934,.000154,53.1613,91.6409,86.8571,273.2597,0,U,50821,999,24511,.74474E-4,.897E-5,0
STARLINK-3343,2022-001V,2026-06-15T02:47:12.272064,15.08830659,.0001349,53.1599,91.6738,85.9765,274.1380,0,U,50822,999,24511,.33787E-4,.25E-5,0
STARLINK-3334,2022-001W,2026-06-15T01:59:32.159904,15.08820243,.0001357,53.1613,91.8249,91.0819,269.0328,0,U,50823,999,24511,.11757E-4,-.101E-5,0
STARLINK-3332,2022-001Y,2026-06-15T01:17:10.101696,15.08741702,.0001108,53.1607,91.9556,108.4695,251.6417,0,U,50825,999,24510,.15012E-2,.23621E-3,0
STARLINK-3329,2022-001AA,2026-06-15T01:33:01.463328,15.08841722,.000158,53.1605,91.9085,89.7769,270.3404,0,U,50827,999,24510,.18126E-3,.2598E-4,0
STARLINK-3290,2022-001AB,2026-06-15T02:48:33.786144,15.08830782,.0001082,53.1598,91.5620,86.7118,273.3997,0,U,50828,999,24496,.31827E-4,.219E-5,0
STARLINK-3294,2022-001AC,2026-06-15T01:43:36.232032,15.08835265,.0001407,53.1612,91.8716,92.2192,267.8961,0,U,50829,999,24510,.58459E-4,.642E-5,0
STARLINK-3278,2022-001AD,2026-06-15T02:08:46.982688,15.08831176,.0001397,53.1613,101.7946,93.1141,267.0010,0,U,50830,999,24497,-.26824E-4,-.715E-5,0
