STARLINK-3267           
1 50197U 21125AT  26166.13174818  .00000271  00000+0  35154-4 0  9998
2 50197  53.1602 161.6033 0001378  76.4914 283.6231 15.08834046251496
STARLINK-3264           
1 50198U 21125AU  26166.18327046  .00000314  00000+0  37836-4 0  9994
2 50198  53.1598 161.3715 0001416  97.2458 262.8695 15.08836738251451
STARLINK-3270           
1 50199U 21125AV  26166.16488435  .00002064  00000+0  14773-3 0  9991
2 50199  53.1585 161.4539 0001303  74.0639 286.0496 15.08844004251443
STARLINK-3235           
1 50200U 21125AW  26166.18696455  .00000902  00000+0  74778-4 0  9990
2 50200  53.1607 161.3165 0001428  81.1904 278.9249 15.08829898251469
STARLINK-3256           
1 50202U 21125AY  26166.16119675 -.00002657  00000+0 -14891-3 0  9994
2 50202  53.1603 161.4702 0001344  89.7521 270.3624 15.08830571251442
STARLINK-3257           
1 50203U 21125AZ  26166.19527830 -.00000353  00000+0 -40754-5 0  9994
2 50203  53.1613 161.4034 0001458  91.4123 268.7036 15.08832622251511
STARLINK-3254           
1 50204U 21125BA  26166.16951446  .00000017  00000+0  19172-4 0  9990
2 50204  53.1602 161.4431 0001362  91.8780 268.2367 15.08830224251505
STARLINK-3260           
1 50205U 21125BB  26166.17595385 -.00000938  00000+0 -40795-4 0  9997
2 50205  53.1627 131.4021 0001945  93.6961 266.4253 15.08839337251871
STARLINK-3323           
1 50804U 22001B   26166.06184947 -.00002310  00000+0 -12720-3 0  9994
2 50804  53.1610  81.9172 0001190  92.8829 267.2299 15.08812527245245
STARLINK-3333           
1 50805U 22001C   26166.05815537 -.00000564  00000+0 -17342-4 0  9995
2 50805  53.1616  81.9349 0001392  92.3980 267.7171 15.08828466245248
STARLINK-3335           
1 50806U 22001D   26166.05447354  .00000101  00000+0  24430-4 0  9995
2 50806  53.1604  81.9548 0001352  95.6079 264.5066 15.08828358245246
STARLINK-3355           
1 50808U 22001F   26165.98086593 -.00001726  00000+0 -90400-4 0  9998
2 50808  53.1617  82.2815 0001594  97.6408 262.4765 15.08825437245236
STARLINK-3232           
1 50809U 22001G   26166.05079159 -.00000502  00000+0 -13422-4 0  9998
2 50809  53.1612  81.9665 0001343  94.5309 265.5836 15.08831147245248
STARLINK-3338           
1 50812U 22001K   26166.07656625  .00000605  00000+0  56110-4 0  9996
2 50812  53.1602  81.9563 0001387  89.4844 270.6306 15.08831255245242
STARLINK-3349           
1 50813U 22001L   26165.89598573  .00049744  00000+0  10186-2 0  9991
2 50813  53.2032  25.0645 0001566 156.4860 203.6220 15.45628457246042
STARLINK-3324           
1 50814U 22001M   26166.07933634 -.00002887  00000+0 -16347-3 0  9999
2 50814  53.1628  91.8390 0001535  96.4170 263.6996 15.08813537245111
STARLINK-3234           
1 50815U 22001N   26166.09035767 -.00000737  00000+0 -28200-4 0  9996
2 50815  53.1617  91.7935 0001488 101.4129 258.7029 15.08824112245115
STARLINK-3342           
1 50816U 22001P   26166.08235789  .00024670  00000+0  12250-2 0  9998
2 50816  53.2128  85.8301 0003500 100.1822 259.9569 15.17563364245197
STARLINK-3341           
1 50817U 22001Q   26166.08667178  .00000168  00000+0  28682-4 0  9994
2 50817  53.1600  91.8055 0001626  88.5076 271.6102 15.08832138245116
STARLINK-3336           
1 50818U 22001R   26166.06827985  .00002243  00000+0  15896-3 0  9995
2 50818  53.1612  91.8885 0001777  96.6571 263.4623 15.08842324245102
STARLINK-3327           
1 50819U 22001S   26166.07563277  .00004109  00000+0  27616-3 0  9994
2 50819  53.1605  91.8559 0001116 118.2382 241.8722 15.08831156245113
STARLINK-3339           
1 50820U 22001T   26166.18972627  .00000390  00000+0  42596-4 0  9994
2 50820  53.1602  91.3428 0001568  93.3937 266.7233 15.08832313245122
STARLINK-3346           
1 50821U 22001U   26166.09770160  .00000897  00000+0  74474-4 0  9995
2 50821  53.1613  91.6409 0001540  86.8571 273.2597 15.08823934245112
STARLINK-3343           
1 50822U 22001V   26166.11611426  .00000250  00000+0  33787-4 0  9993
2 50822  53.1599  91.6738 0001349  85.9765 274.1380 15.08830659245115
STARLINK-3334           
1 50823U 22001W   26166.08301111 -.00000101  00000+0  11757-4 0  9996
2 50823  53.1613  91.8249 0001357  91.0819 269.0328 15.08820243245112
STARLINK-3332           
1 50825U 22001Y   26166.05358914  .00023621  00000+0  15012-2 0  9995
2 50825  53.1607  91.9556 0001108 108.4695 251.6417 15.08741702245105
STARLINK-3329           
1 50827U 22001AA  26166.06460027  .00002598  00000+0  18126-3 0  9997
2 50827  53.1605  91.9085 0001580  89.7769 270.3404 15.08841722245106
STARLINK-3290           
1 50828U 22001AB  26166.11705771  .00000219  00000+0  31827-4 0  9994
2 50828  53.1598  91.5620 0001082  86.7118 273.3997 15.08830782244968
STARLINK-3294           
1 50829U 22001AC  26166.07194713  .00000642  00000+0  58459-4 0  9998
2 50829  53.1612  91.8716 0001407  92.2192 267.8961 15.08835265245107
STARLINK-3278           
1 50830U 22001AD  26166.08943267 -.00000715  00000+0 -26824-4 0  9991
2 50830  53.1613 101.7946 0001397  93.1141 267.0010 15.08831176244976
